start=new Date('2021-10-01T00:00:00.000Z').valueOf();
sats=[{"RCS_SIZE":"LARGE","SEMIMAJOR_AXIS":"6925.347","ARG_OF_PERICENTER":"63.6048","EPOCH":"2021-09-30T08:39:23.346432","APOAPSIS":"548.120","PERIOD":"95.592","RA_OF_ASC_NODE":"255.0526","TIME_SYSTEM":"UTC","CLASSIFICATION_TYPE":"U","GP_ID":"185860110","MEAN_MOTION":"15.06400412","OBJECT_ID":"2020-070AA","NORAD_CAT_ID":"46556","PERIAPSIS":"546.304","MEAN_MOTION_DDOT":"0.0000000000000","ELEMENT_SET_NO":"999","OBJECT_TYPE":"PAYLOAD","SITE":"AFETR","TLE_LINE2":"2 46556  53.0545 255.0526 0001311  63.6048 296.5075 15.06400412 55139","OBJECT_NAME":"STARLINK-1676","TLE_LINE1":"1 46556U 20070AA  21273.36068688  .00001912  00000-0  14722-3 0  9997","CENTER_NAME":"EARTH","DECAY_DATE":null,"INCLINATION":"53.0545","MEAN_MOTION_DOT":"0.00001912","BSTAR":"0.00014722000000","ECCENTRICITY":"0.00013110","COUNTRY_CODE":"US","MEAN_ELEMENT_THEORY":"SGP4","EPHEMERIS_TYPE":"0","MEAN_ANOMALY":"296.5075","REF_FRAME":"TEME","LAUNCH_DATE":"2020-10-06","FILE":"3136969","REV_AT_EPOCH":"5513"},{"PERIOD":"95.592","EPOCH":"2021-09-30T08:06:52.693632","APOAPSIS":"548.046","SEMIMAJOR_AXIS":"6925.330","ARG_OF_PERICENTER":"62.4902","RCS_SIZE":"LARGE","TIME_SYSTEM":"UTC","RA_OF_ASC_NODE":"240.1515","CLASSIFICATION_TYPE":"U","GP_ID":"185860360","OBJECT_NAME":"STARLINK-1679","TLE_LINE2":"2 46557  53.0531 240.1515 0001229  62.4902 297.6211 15.06405958 55349","SITE":"AFETR","ELEMENT_SET_NO":"999","OBJECT_TYPE":"PAYLOAD","MEAN_MOTION_DDOT":"0.0000000000000","PERIAPSIS":"546.344","OBJECT_ID":"2020-070AB","MEAN_MOTION":"15.06405958","NORAD_CAT_ID":"46557","COUNTRY_CODE":"US","ECCENTRICITY":"0.00012290","BSTAR":"0.00014612000000","MEAN_MOTION_DOT":"0.00001896","INCLINATION":"53.0531","DECAY_DATE":null,"TLE_LINE1":"1 46557U 20070AB  21273.33810988  .00001896  00000-0  14612-3 0  9992","CENTER_NAME":"EARTH","REF_FRAME":"TEME","MEAN_ANOMALY":"297.6211","EPHEMERIS_TYPE":"0","MEAN_ELEMENT_THEORY":"SGP4","REV_AT_EPOCH":"5534","FILE":"3136969","LAUNCH_DATE":"2020-10-06"},{"CLASSIFICATION_TYPE":"U","GP_ID":"185861611","TIME_SYSTEM":"UTC","RA_OF_ASC_NODE":"240.1249","PERIOD":"95.592","APOAPSIS":"548.147","EPOCH":"2021-09-30T08:17:29.533344","SEMIMAJOR_AXIS":"6925.336","ARG_OF_PERICENTER":"63.7033","RCS_SIZE":"LARGE","REV_AT_EPOCH":"5531","FILE":"3136969","LAUNCH_DATE":"2020-10-06","REF_FRAME":"TEME","MEAN_ANOMALY":"296.4096","EPHEMERIS_TYPE":"0","MEAN_ELEMENT_THEORY":"SGP4","COUNTRY_CODE":"US","ECCENTRICITY":"0.00013660","BSTAR":"0.00006444900000","MEAN_MOTION_DOT":"0.00000679","INCLINATION":"53.0531","TLE_LINE1":"1 46558U 20070AC  21273.34548071  .00000679  00000-0  64449-4 0  9997","DECAY_DATE":null,"CENTER_NAME":"EARTH","OBJECT_NAME":"STARLINK-1680","TLE_LINE2":"2 46558  53.0531 240.1249 0001366  63.7033 296.4096 15.06403945 55314","SITE":"AFETR","ELEMENT_SET_NO":"999","OBJECT_TYPE":"PAYLOAD","MEAN_MOTION_DDOT":"0.0000000000000","PERIAPSIS":"546.255","MEAN_MOTION":"15.06403945","NORAD_CAT_ID":"46558","OBJECT_ID":"2020-070AC"},{"REF_FRAME":"TEME","MEAN_ANOMALY":"300.5854","MEAN_ELEMENT_THEORY":"SGP4","EPHEMERIS_TYPE":"0","FILE":"3136969","LAUNCH_DATE":"2020-10-06","REV_AT_EPOCH":"5553","ELEMENT_SET_NO":"999","OBJECT_TYPE":"PAYLOAD","MEAN_MOTION_DDOT":"0.0000000000000","OBJECT_NAME":"STARLINK-1681","SITE":"AFETR","TLE_LINE2":"2 46559  53.0540 225.4657 0001756  59.5308 300.5854 15.06402908 55536","NORAD_CAT_ID":"46559","OBJECT_ID":"2020-070AD","MEAN_MOTION":"15.06402908","PERIAPSIS":"545.989","BSTAR":"0.00005555700000","ECCENTRICITY":"0.00017560","COUNTRY_CODE":"US","DECAY_DATE":null,"TLE_LINE1":"1 46559U 20070AD  21273.26761717  .00000546  00000-0  55557-4 0  9996","CENTER_NAME":"EARTH","INCLINATION":"53.0540","MEAN_MOTION_DOT":"0.00000546","CLASSIFICATION_TYPE":"U","GP_ID":"185861362","APOAPSIS":"548.421","EPOCH":"2021-09-30T06:25:22.123488","PERIOD":"95.592","RCS_SIZE":"LARGE","ARG_OF_PERICENTER":"59.5308","SEMIMAJOR_AXIS":"6925.340","TIME_SYSTEM":"UTC","RA_OF_ASC_NODE":"225.4657"},{"REF_FRAME":"TEME","MEAN_ANOMALY":"291.4433","EPHEMERIS_TYPE":"0","MEAN_ELEMENT_THEORY":"SGP4","REV_AT_EPOCH":"5533","FILE":"3136969","LAUNCH_DATE":"2020-10-06","OBJECT_NAME":"STARLINK-1706","TLE_LINE2":"2 46560  53.0548 240.3565 0001308  68.6695 291.4433 15.06395092 55337","SITE":"AFETR","ELEMENT_SET_NO":"999","OBJECT_TYPE":"PAYLOAD","MEAN_MOTION_DDOT":"0.0000000000000","PERIAPSIS":"546.323","OBJECT_ID":"2020-070AE","MEAN_MOTION":"15.06395092","NORAD_CAT_ID":"46560","COUNTRY_CODE":"US","ECCENTRICITY":"0.00013080","BSTAR":"0.00003922300000","INCLINATION":"53.0548","MEAN_MOTION_DOT":"0.00000303","TLE_LINE1":"1 46560U 20070AE  21273.29388463  .00000303  00000-0  39223-4 0  9997","CENTER_NAME":"EARTH","DECAY_DATE":null,"GP_ID":"185860610","CLASSIFICATION_TYPE":"U","PERIOD":"95.592","EPOCH":"2021-09-30T07:03:11.632032","APOAPSIS":"548.134","SEMIMAJOR_AXIS":"6925.364","ARG_OF_PERICENTER":"68.6695","RCS_SIZE":"LARGE","TIME_SYSTEM":"UTC","RA_OF_ASC_NODE":"240.3565"},{"CLASSIFICATION_TYPE":"U","GP_ID":"185860860","SEMIMAJOR_AXIS":"6925.348","ARG_OF_PERICENTER":"59.6091","RCS_SIZE":"LARGE","PERIOD":"95.592","EPOCH":"2021-09-30T07:24:26.650656","APOAPSIS":"548.134","RA_OF_ASC_NODE":"240.2881","TIME_SYSTEM":"UTC","EPHEMERIS_TYPE":"0","MEAN_ELEMENT_THEORY":"SGP4","MEAN_ANOMALY":"300.5030","REF_FRAME":"TEME","REV_AT_EPOCH":"5533","LAUNCH_DATE":"2020-10-06","FILE":"3136969","PERIAPSIS":"546.292","NORAD_CAT_ID":"46561","OBJECT_ID":"2020-070AF","MEAN_MOTION":"15.06400202","TLE_LINE2":"2 46561  53.0542 240.2881 0001330  59.6091 300.5030 15.06400202 55332","SITE":"AFETR","OBJECT_NAME":"STARLINK-1709","MEAN_MOTION_DDOT":"0.0000000000000","OBJECT_TYPE":"PAYLOAD","ELEMENT_SET_NO":"999","MEAN_MOTION_DOT":"0.00001249","INCLINATION":"53.0542","TLE_LINE1":"1 46561U 20070AF  21273.30864179  .00001249  00000-0  10273-3 0  9996","CENTER_NAME":"EARTH","DECAY_DATE":null,"COUNTRY_CODE":"US","ECCENTRICITY":"0.00013300","BSTAR":"0.00010273000000"},{"RCS_SIZE":"LARGE","ARG_OF_PERICENTER":"59.2148","SEMIMAJOR_AXIS":"6925.347","APOAPSIS":"548.224","EPOCH":"2021-09-30T04:16:39.413280","PERIOD":"95.592","RA_OF_ASC_NODE":"235.8699","TIME_SYSTEM":"UTC","GP_ID":"185861112","CLASSIFICATION_TYPE":"U","OBJECT_ID":"2020-070AG","NORAD_CAT_ID":"46562","MEAN_MOTION":"15.06400512","PERIAPSIS":"546.200","MEAN_MOTION_DDOT":"0.0000000000000","ELEMENT_SET_NO":"999","OBJECT_TYPE":"PAYLOAD","SITE":"AFETR","TLE_LINE2":"2 46562  53.0543 235.8699 0001462  59.2148 300.8985 15.06400512 55387","OBJECT_NAME":"STARLINK-1714","CENTER_NAME":"EARTH","TLE_LINE1":"1 46562U 20070AG  21273.17823395  .00000109  00000-0  26219-4 0  9999","DECAY_DATE":null,"MEAN_MOTION_DOT":"0.00000109","INCLINATION":"53.0543","BSTAR":"0.00002621900000","ECCENTRICITY":"0.00014620","COUNTRY_CODE":"US","MEAN_ELEMENT_THEORY":"SGP4","EPHEMERIS_TYPE":"0","MEAN_ANOMALY":"300.8985","REF_FRAME":"TEME","LAUNCH_DATE":"2020-10-06","FILE":"3136969","REV_AT_EPOCH":"5538"},{"BSTAR":"0.00002808400000","ECCENTRICITY":"0.00013640","COUNTRY_CODE":"US","CENTER_NAME":"EARTH","TLE_LINE1":"1 46563U 20070AH  21273.49154296  .00000137  00000-0  28084-4 0  9995","DECAY_DATE":null,"MEAN_MOTION_DOT":"0.00000137","INCLINATION":"53.0531","MEAN_MOTION_DDOT":"0.0000000000000","ELEMENT_SET_NO":"999","OBJECT_TYPE":"PAYLOAD","SITE":"AFETR","TLE_LINE2":"2 46563  53.0531 234.4555 0001364  58.7460 301.3662 15.06396658 55432","OBJECT_NAME":"STARLINK-1730","NORAD_CAT_ID":"46563","MEAN_MOTION":"15.06396658","OBJECT_ID":"2020-070AH","PERIAPSIS":"546.279","LAUNCH_DATE":"2020-10-06","FILE":"3136969","REV_AT_EPOCH":"5543","MEAN_ANOMALY":"301.3662","REF_FRAME":"TEME","MEAN_ELEMENT_THEORY":"SGP4","EPHEMERIS_TYPE":"0","TIME_SYSTEM":"UTC","RA_OF_ASC_NODE":"234.4555","EPOCH":"2021-09-30T11:47:49.311744","APOAPSIS":"548.168","PERIOD":"95.592","RCS_SIZE":"LARGE","ARG_OF_PERICENTER":"58.7460","SEMIMAJOR_AXIS":"6925.359","GP_ID":"185861862","CLASSIFICATION_TYPE":"U"},{"OBJECT_ID":"2020-070AJ","NORAD_CAT_ID":"46564","MEAN_MOTION":"15.06398034","PERIAPSIS":"546.100","OBJECT_TYPE":"PAYLOAD","ELEMENT_SET_NO":"999","MEAN_MOTION_DDOT":"0.0000000000000","OBJECT_NAME":"STARLINK-1733","TLE_LINE2":"2 46564  53.0545 235.4416 0001617  65.1011 295.0146 15.06398034 55403","SITE":"AFETR","TLE_LINE1":"1 46564U 20070AJ  21273.27407212  .00002047  00000-0  15626-3 0  9990","DECAY_DATE":null,"CENTER_NAME":"EARTH","INCLINATION":"53.0545","MEAN_MOTION_DOT":"0.00002047","BSTAR":"0.00015626000000","COUNTRY_CODE":"US","ECCENTRICITY":"0.00016170","MEAN_ELEMENT_THEORY":"SGP4","EPHEMERIS_TYPE":"0","REF_FRAME":"TEME","MEAN_ANOMALY":"295.0146","FILE":"3136969","LAUNCH_DATE":"2020-10-06","REV_AT_EPOCH":"5540","RCS_SIZE":"LARGE","ARG_OF_PERICENTER":"65.1011","SEMIMAJOR_AXIS":"6925.355","EPOCH":"2021-09-30T06:34:39.831168","APOAPSIS":"548.339","PERIOD":"95.592","RA_OF_ASC_NODE":"235.4416","TIME_SYSTEM":"UTC","CLASSIFICATION_TYPE":"U","GP_ID":"185860111"},{"BSTAR":"0.00002139200000","COUNTRY_CODE":"US","ECCENTRICITY":"0.00014620","DECAY_DATE":null,"TLE_LINE1":"1 46565U 20070AK  21273.38465768  .00000037  00000-0  21392-4 0  9998","CENTER_NAME":"EARTH","INCLINATION":"53.0557","MEAN_MOTION_DOT":"0.00000037","MEAN_MOTION_DDOT":"0.0000000000000","OBJECT_TYPE":"PAYLOAD","ELEMENT_SET_NO":"999","SITE":"AFETR","TLE_LINE2":"2 46565  53.0557 234.8538 0001462  64.8455 295.2685 15.06398757 55414","OBJECT_NAME":"STARLINK-1735","MEAN_MOTION":"15.06398757","OBJECT_ID":"2020-070AK","NORAD_CAT_ID":"46565","PERIAPSIS":"546.205","LAUNCH_DATE":"2020-10-06","FILE":"3136969","REV_AT_EPOCH":"5541","MEAN_ANOMALY":"295.2685","REF_FRAME":"TEME","MEAN_ELEMENT_THEORY":"SGP4","EPHEMERIS_TYPE":"0","TIME_SYSTEM":"UTC","RA_OF_ASC_NODE":"234.8538","EPOCH":"2021-09-30T09:13:54.423552","APOAPSIS":"548.230","PERIOD":"95.592","RCS_SIZE":"LARGE","SEMIMAJOR_AXIS":"6925.352","ARG_OF_PERICENTER":"64.8455","GP_ID":"185860361","CLASSIFICATION_TYPE":"U"}];
